CCSDS_OMM_VERS = 2.0
CREATION_DATE  = 
ORIGINATOR     = 

OBJECT_NAME    = STARLINK-36822
OBJECT_ID      = 2026-036F
CENTER_NAME    = EARTH
REF_FRAME      = TEME
TIME_SYSTEM    = UTC
MEAN_ELEMENT_THEORY = SGP/SGP4

EPOCH          = 2026-03-12T14:00:01.999872
MEAN_MOTION    = 15.73614781
ECCENTRICITY   = .00012285
INCLINATION    = 42.9990
RA_OF_ASC_NODE = 232.1002
ARG_OF_PERICENTER = 279.5558
MEAN_ANOMALY   = 245.3780

EPHEMERIS_TYPE = 0
CLASSIFICATION_TYPE = U
NORAD_CAT_ID   = 67909
ELEMENT_SET_NO = 999
REV_AT_EPOCH   = 411
BSTAR          = -.15327604E-1
MEAN_MOTION_DOT = -.1959682E-1
MEAN_MOTION_DDOT = 0

CCSDS_OMM_VERS = 2.0
CREATION_DATE  = 
ORIGINATOR     = 

OBJECT_NAME    = STARLINK-36847
OBJECT_ID      = 2026-036G
CENTER_NAME    = EARTH
REF_FRAME      = TEME
TIME_SYSTEM    = UTC
MEAN_ELEMENT_THEORY = SGP/SGP4

EPOCH          = 2026-03-12T14:00:01.999872
MEAN_MOTION    = 15.72753782
ECCENTRICITY   = .00012331
INCLINATION    = 42.9990
RA_OF_ASC_NODE = 232.1054
ARG_OF_PERICENTER = 279.2152
MEAN_ANOMALY   = 243.4356

EPHEMERIS_TYPE = 0
CLASSIFICATION_TYPE = U
NORAD_CAT_ID   = 67910
ELEMENT_SET_NO = 999
REV_AT_EPOCH   = 411
BSTAR          = -.15900709E-1
MEAN_MOTION_DOT = -.1958548E-1
MEAN_MOTION_DDOT = 0

CCSDS_OMM_VERS = 2.0
CREATION_DATE  = 
ORIGINATOR     = 

OBJECT_NAME    = STARLINK-36736
OBJECT_ID      = 2026-036H
CENTER_NAME    = EARTH
REF_FRAME      = TEME
TIME_SYSTEM    = UTC
MEAN_ELEMENT_THEORY = SGP/SGP4

EPOCH          = 2026-03-12T11:37:20.094240
MEAN_MOTION    = 15.82709328
ECCENTRICITY   = .00154305
INCLINATION    = 42.9975
RA_OF_ASC_NODE = 232.6063
ARG_OF_PERICENTER = 235.5371
MEAN_ANOMALY   = 124.4043

EPHEMERIS_TYPE = 0
CLASSIFICATION_TYPE = U
NORAD_CAT_ID   = 67911
ELEMENT_SET_NO = 999
REV_AT_EPOCH   = 411
BSTAR          = .2066402E-2
MEAN_MOTION_DOT = .477742E-2
MEAN_MOTION_DDOT = 0

CCSDS_OMM_VERS = 2.0
CREATION_DATE  = 
ORIGINATOR     = 

OBJECT_NAME    = STARLINK-36676
OBJECT_ID      = 2026-036J
CENTER_NAME    = EARTH
REF_FRAME      = TEME
TIME_SYSTEM    = UTC
MEAN_ELEMENT_THEORY = SGP/SGP4

EPOCH          = 2026-03-12T14:38:23.342496
MEAN_MOTION    = 15.82201068
ECCENTRICITY   = .00147856
INCLINATION    = 42.9962
RA_OF_ASC_NODE = 231.8240
ARG_OF_PERICENTER = 240.2433
MEAN_ANOMALY   = 119.6968

EPHEMERIS_TYPE = 0
CLASSIFICATION_TYPE = U
NORAD_CAT_ID   = 67912
ELEMENT_SET_NO = 999
REV_AT_EPOCH   = 413
BSTAR          = .20010072E-2
MEAN_MOTION_DOT = .449999E-2
MEAN_MOTION_DDOT = 0

CCSDS_OMM_VERS = 2.0
CREATION_DATE  = 
ORIGINATOR     = 

OBJECT_NAME    = STARLINK-36690
OBJECT_ID      = 2026-036K
CENTER_NAME    = EARTH
REF_FRAME      = TEME
TIME_SYSTEM    = UTC
MEAN_ELEMENT_THEORY = SGP/SGP4

EPOCH          = 2026-03-11T21:57:17.113824
MEAN_MOTION    = 15.82071128
ECCENTRICITY   = .0001837
INCLINATION    = 42.9982
RA_OF_ASC_NODE = 236.0766
ARG_OF_PERICENTER = 5.2723
MEAN_ANOMALY   = 354.8168

EPHEMERIS_TYPE = 0
CLASSIFICATION_TYPE = U
NORAD_CAT_ID   = 67913
ELEMENT_SET_NO = 999
REV_AT_EPOCH   = 402
BSTAR          = .11894E-2
MEAN_MOTION_DOT = .258188E-2
MEAN_MOTION_DDOT = 0

CCSDS_OMM_VERS = 2.0
CREATION_DATE  = 
ORIGINATOR     = 

OBJECT_NAME    = STARLINK-36724
OBJECT_ID      = 2026-036L
CENTER_NAME    = EARTH
REF_FRAME      = TEME
TIME_SYSTEM    = UTC
MEAN_ELEMENT_THEORY = SGP/SGP4

EPOCH          = 2026-03-11T20:24:12.243744
MEAN_MOTION    = 15.82180836
ECCENTRICITY   = .0001742
INCLINATION    = 42.9983
RA_OF_ASC_NODE = 236.4507
ARG_OF_PERICENTER = 327.9257
MEAN_ANOMALY   = 32.1509

EPHEMERIS_TYPE = 0
CLASSIFICATION_TYPE = U
NORAD_CAT_ID   = 67914
ELEMENT_SET_NO = 999
REV_AT_EPOCH   = 401
BSTAR          = .21408535E-2
MEAN_MOTION_DOT = .479839E-2
MEAN_MOTION_DDOT = 0

CCSDS_OMM_VERS = 2.0
CREATION_DATE  = 
ORIGINATOR     = 

OBJECT_NAME    = STARLINK-36723
OBJECT_ID      = 2026-036M
CENTER_NAME    = EARTH
REF_FRAME      = TEME
TIME_SYSTEM    = UTC
MEAN_ELEMENT_THEORY = SGP/SGP4

EPOCH          = 2026-03-12T14:36:26.604864
MEAN_MOTION    = 15.82020720
ECCENTRICITY   = .00063548
INCLINATION    = 42.9986
RA_OF_ASC_NODE = 231.8163
ARG_OF_PERICENTER = 229.5171
MEAN_ANOMALY   = 130.5148

EPHEMERIS_TYPE = 0
CLASSIFICATION_TYPE = U
NORAD_CAT_ID   = 67915
ELEMENT_SET_NO = 999
REV_AT_EPOCH   = 413
BSTAR          = .28713859E-2
MEAN_MOTION_DOT = .652248E-2
MEAN_MOTION_DDOT = 0

CCSDS_OMM_VERS = 2.0
CREATION_DATE  = 
ORIGINATOR     = 

OBJECT_NAME    = STARLINK-36721
OBJECT_ID      = 2026-036N
CENTER_NAME    = EARTH
REF_FRAME      = TEME
TIME_SYSTEM    = UTC
MEAN_ELEMENT_THEORY = SGP/SGP4

EPOCH          = 2026-03-12T11:32:19.370400
MEAN_MOTION    = 15.82196979
ECCENTRICITY   = .00058114
INCLINATION    = 42.9987
RA_OF_ASC_NODE = 232.5781
ARG_OF_PERICENTER = 241.8350
MEAN_ANOMALY   = 118.1935

EPHEMERIS_TYPE = 0
CLASSIFICATION_TYPE = U
NORAD_CAT_ID   = 67916
ELEMENT_SET_NO = 999
REV_AT_EPOCH   = 411
BSTAR          = .35062042E-2
MEAN_MOTION_DOT = .818747E-2
MEAN_MOTION_DDOT = 0

CCSDS_OMM_VERS = 2.0
CREATION_DATE  = 
ORIGINATOR     = 

OBJECT_NAME    = STARLINK-36722
OBJECT_ID      = 2026-036P
CENTER_NAME    = EARTH
REF_FRAME      = TEME
TIME_SYSTEM    = UTC
MEAN_ELEMENT_THEORY = SGP/SGP4

EPOCH          = 2026-03-12T14:32:59.518752
MEAN_MOTION    = 15.82067928
ECCENTRICITY   = .00036321
INCLINATION    = 42.9974
RA_OF_ASC_NODE = 231.7963
ARG_OF_PERICENTER = 310.7465
MEAN_ANOMALY   = 49.3091

EPHEMERIS_TYPE = 0
CLASSIFICATION_TYPE = U
NORAD_CAT_ID   = 67917
ELEMENT_SET_NO = 999
REV_AT_EPOCH   = 413
BSTAR          = .17000752E-2
MEAN_MOTION_DOT = .374309E-2
MEAN_MOTION_DDOT = 0

CCSDS_OMM_VERS = 2.0
CREATION_DATE  = 
ORIGINATOR     = 

OBJECT_NAME    = STARLINK-36341
OBJECT_ID      = 2026-036Q
CENTER_NAME    = EARTH
REF_FRAME      = TEME
TIME_SYSTEM    = UTC
MEAN_ELEMENT_THEORY = SGP/SGP4

EPOCH          = 2026-03-12T14:00:01.999872
MEAN_MOTION    = 15.66249509
ECCENTRICITY   = .0001327
INCLINATION    = 42.9994
RA_OF_ASC_NODE = 232.1832
ARG_OF_PERICENTER = 280.2749
MEAN_ANOMALY   = 210.6312

EPHEMERIS_TYPE = 0
CLASSIFICATION_TYPE = U
NORAD_CAT_ID   = 67918
ELEMENT_SET_NO = 999
REV_AT_EPOCH   = 411
BSTAR          = -.20854504E-1
MEAN_MOTION_DOT = -.1955404E-1
MEAN_MOTION_DDOT = 0

CCSDS_OMM_VERS = 2.0
CREATION_DATE  = 
ORIGINATOR     = 

OBJECT_NAME    = STARLINK-36663
OBJECT_ID      = 2026-036R
CENTER_NAME    = EARTH
REF_FRAME      = TEME
TIME_SYSTEM    = UTC
MEAN_ELEMENT_THEORY = SGP/SGP4

EPOCH          = 2026-03-12T11:30:07.098912
MEAN_MOTION    = 15.82031084
ECCENTRICITY   = .00039815
INCLINATION    = 42.9983
RA_OF_ASC_NODE = 232.5638
ARG_OF_PERICENTER = 241.2854
MEAN_ANOMALY   = 118.7618

EPHEMERIS_TYPE = 0
CLASSIFICATION_TYPE = U
NORAD_CAT_ID   = 67919
ELEMENT_SET_NO = 999
REV_AT_EPOCH   = 411
BSTAR          = .25943857E-2
MEAN_MOTION_DOT = .584721E-2
MEAN_MOTION_DDOT = 0

CCSDS_OMM_VERS = 2.0
CREATION_DATE  = 
ORIGINATOR     = 

OBJECT_NAME    = STARLINK-36375
OBJECT_ID      = 2026-036S
CENTER_NAME    = EARTH
REF_FRAME      = TEME
TIME_SYSTEM    = UTC
MEAN_ELEMENT_THEORY = SGP/SGP4

EPOCH          = 2026-03-12T14:00:01.999872
MEAN_MOTION    = 15.75181167
ECCENTRICITY   = .0001136
INCLINATION    = 42.9989
RA_OF_ASC_NODE = 231.9560
ARG_OF_PERICENTER = 267.0258
MEAN_ANOMALY   = 315.1748

EPHEMERIS_TYPE = 0
CLASSIFICATION_TYPE = U
NORAD_CAT_ID   = 67920
ELEMENT_SET_NO = 999
REV_AT_EPOCH   = 411
BSTAR          = -.1432501E-1
MEAN_MOTION_DOT = -.1921992E-1
MEAN_MOTION_DDOT = 0

