STARLINK-36822          
1 67909U 26036F   26071.58335648 -.01959682  00000+0 -15328-1 0  9997
2 67909  42.9990 232.1002 0001228 279.5558 245.3780 15.73614781  4118
STARLINK-36847          
1 67910U 26036G   26071.58335648 -.01958548  00000+0 -15901-1 0  9996
2 67910  42.9990 232.1054 0001233 279.2152 243.4356 15.72753782  4112
STARLINK-36736          
1 67911U 26036H   26071.48426035  .00477742  00000+0  20664-2 0  9999
2 67911  42.9975 232.6063 0015430 235.5371 124.4043 15.82709328  4112
STARLINK-36676          
1 67912U 26036J   26071.60999239  .00449999  00000+0  20010-2 0  9993
2 67912  42.9962 231.8240 0014785 240.2433 119.6968 15.82201068  4133
STARLINK-36690          
1 67913U 26036K   26070.91478141  .00258188  00000+0  11894-2 0  9999
2 67913  42.9982 236.0766 0001837   5.2723 354.8168 15.82071128  4026
STARLINK-36724          
1 67914U 26036L   26070.85014171  .00479839  00000+0  21409-2 0  9993
2 67914  42.9983 236.4507 0001742 327.9257  32.1509 15.82180836  4017
STARLINK-36723          
1 67915U 26036M   26071.60864126  .00652248  00000+0  28714-2 0  9994
2 67915  42.9986 231.8163 0006354 229.5171 130.5148 15.82020720  4134
STARLINK-36721          
1 67916U 26036N   26071.48077975  .00818747  00000+0  35062-2 0  9991
2 67916  42.9987 232.5781 0005811 241.8350 118.1935 15.82196979  4117
STARLINK-36722          
1 67917U 26036P   26071.60624443  .00374309  00000+0  17001-2 0  9998
2 67917  42.9974 231.7963 0003632 310.7465  49.3091 15.82067928  4130
STARLINK-36341          
1 67918U 26036Q   26071.58335648 -.01955404  00000+0 -20855-1 0  9996
2 67918  42.9994 232.1832 0001327 280.2749 210.6312 15.66249509  4114
STARLINK-36663          
1 67919U 26036R   26071.47924883  .00584721  00000+0  25944-2 0  9992
2 67919  42.9983 232.5638 0003981 241.2854 118.7618 15.82031084  4115
STARLINK-36375          
1 67920U 26036S   26071.58335648 -.01921992  00000+0 -14325-1 0  9999
2 67920  42.9989 231.9560 0001136 267.0258 315.1748 15.75181167  4111
